SL-16 R/B               
1 23405U 94077B   26183.80806568 -.00000103  00000+0 -28373-4 0  9994
2 23405  70.9833 110.2998 0003845 313.5489  46.5314 14.15578058632524
ARIANE 40+ R/B          
1 23561U 95021B   26183.83938368  .00000325  00000+0  11736-3 0  9992
2 23561  98.4406 253.6879 0007417 148.7382 325.4514 14.39842272635811
SL-16 R/B               
1 23705U 95058B   26183.74991613 -.00000239  00000+0 -97634-4 0  9992
2 23705  71.0227 298.6838 0014614 299.1099  60.8561 14.15510577584130
SL-16 R/B               
1 24298U 96051B   26183.75328605  .00000174  00000+0  12062-3 0  9997
2 24298  70.7654 291.7060 0016797 314.6953  45.2798 14.12451686537897
ORBVIEW 2 (SEASTAR)     
1 24883U 97037A   26183.70225772  .00000286  00000+0  11544-3 0  9996
2 24883  98.8702 351.1522 0003330  85.5489 274.6076 14.35561746524979
SL-16 R/B               
1 25400U 98043G   26183.86881127  .00000067  00000+0  47135-4 0  9992
2 25400  98.8371 138.1635 0010651  45.2243 314.9801 14.26071258455409
SL-16 R/B               
1 25407U 98045B   26183.70441547  .00000170  00000+0  11006-3 0  9994
2 25407  71.0128 299.6957 0008760 222.3711 137.6737 14.16207018443381
ISS (ZARYA)             
1 25544U 98067A   26182.50817465  .00006185  00000+0  11827-3 0  9996
2 25544  51.6311 229.1989 0004224 255.0896 104.9625 15.49503254573972
CZ-4B R/B               
1 25732U 99025C   26183.89208595  .00000062  00000+0  50838-4 0  9995
2 25732  98.6476 225.3348 0037337  15.2394 157.8018 14.18286098404493
OKEAN-O                 
1 25860U 99039A   26183.62220717  .00000666  00000+0  93861-4 0  9996
2 25860  97.9308 242.2424 0001167  71.2630 288.8709 14.80485585451395
SL-16 R/B               
1 25861U 99039B   26183.62964530  .00000595  00000+0  82022-4 0  9993
2 25861  97.9830 242.4483 0013541 241.7350 118.2496 14.81860747453888
DELTA 2 R/B             
1 25876U 99041E   26183.74733751  .00001353  00000+0  25558-3 0  9997
2 25876  51.7614 201.6343 0501100 328.0003  29.1382 14.12048354379282
HELIOS 1B               
1 25977U 99064A   26183.71202093  .00001627  00000+0  18340-3 0  9996
2 25977  98.1599  89.3003 0002380  69.9690 290.1781 14.88048674702364
TERRA                   
1 25994U 99068A   26183.84729775  .00000473  00000+0  10519-3 0  9992
2 25994  97.9447 232.7721 0002762 147.9475 327.8787 14.61115956411893
SL-16 R/B               
1 26070U 00006B   26183.82027888  .00000010  00000+0  29515-4 0  9990
2 26070  71.0011 215.7543 0016572 358.1700   1.9359 14.15841070364853
TITAN 4B R/B            
1 26474U 00047B   26183.82262548  .00003158  00000+0  19602-3 0  9998
2 26474  67.9887  76.5615 0045893 271.3325  88.2567 15.10282987410297
ENVISAT                 
1 27386U 02009A   26184.32254591  .00000094  00000+0  44422-4 0  9991
2 27386  98.3841 135.2816 0001386  85.4464  37.9247 14.39068530275809
IDEFIX & ARIANE 42P R/B 
1 27422U 02021B   26183.79098469  .00000251  00000+0  11192-3 0  9998
2 27422  98.5942 121.1052 0011124 203.7093 156.3578 14.31089266260486
AQUA                    
1 27424U 02022A   26184.36088480  .00000847  00000+0  17815-3 0  9996
2 27424  98.4286 153.9676 0000694  84.4551  81.4729 14.62182845285637
CZ-4B R/B               
1 27432U 02024C   26183.60894278  .00000052  00000+0  49256-4 0  9996
2 27432  98.8692 236.3284 0051023  57.3217 103.7872 14.14566803245485
MIDORI II (ADEOS-II)    
1 27597U 02056A   26183.88837857  .00000258  00000+0  11908-3 0  9993
2 27597  98.7886 143.2822 0001922  55.7041 304.4322 14.29357897226751
H-2A R/B                
1 27601U 02056E   26183.85156329  .00000262  00000+0  10624-3 0  9993
2 27601  98.3320 139.9557 0070080 177.5186 237.5353 14.33829076230615
CZ-4B R/B               
1 28059U 03049C   26183.84058702  .00000352  00000+0  92210-4 0  9991
2 28059  98.6901 183.3106 0047040 239.6292 120.0249 14.55110204203342
CZ-2C R/B               
1 28222U 04012C   26183.79845667  .00133736  00000+0  64062-3 0  9998
2 28222  97.7056 261.3152 0010898 228.3172 131.7164 15.82291172222369
SL-16 R/B               
1 28353U 04021B   26183.85936711  .00000288  00000+0  17456-3 0  9991
2 28353  71.0014 350.7970 0006634 235.8203 124.2291 14.14610707139127
CZ-4B R/B               
1 28415U 04035C   26183.82151742  .00009160  00000+0  30597-3 0  9994
2 28415  97.3356 216.7205 0028836 279.2841  80.5140 15.30846438197511
CZ-2C R/B               
1 28480U 04046B   26183.75751101  .00000122  00000+0  60418-4 0  9990
2 28480  98.1931  91.5644 0139396 174.0576 186.2300 14.27030203124914
ARIANE 5 R/B            
1 28499U 04049H   26183.48820661  .00000609  00000+0  73602-4 0  9990
2 28499  98.2731 356.3331 0083367 339.8866  19.9069 14.85467300162830
CZ-2D R/B               
1 28738U 05024B   26183.51245909  .00061403  00000+0  48297-3 0  9990
2 28738  97.3468 203.7241 0000436 327.5456  32.5780 15.71309237157748
ALOS (DAICHI)           
1 28931U 06002A   26183.88160837  .00001261  00000+0  21821-3 0  9998
2 28931  98.1329 139.4007 0000880  64.6265 295.5032 14.70082911 90408
